QIANFAN-25              
1 61558U 24185G   25361.17080833  .00000382  00000+0  22489-3 0  9992
2 61558  88.9796  76.5596 0007365 263.5690  96.4653 14.05919647 71539
QIANFAN-26              
1 61559U 24185H   25361.20053603  .00000324  00000+0  31141-3 0  9993
2 61559  88.9806  78.1933 0004431 346.2800  13.8246 13.77821676 70664
QIANFAN-27              
1 61560U 24185J   25361.19019528  .00000681  00000+0  27228-3 0  9998
2 61560  88.9798  75.2525 0006126 229.6412 130.4248 14.27350779 72226
QIANFAN-28              
1 61561U 24185K   25361.16522395  .00001033  00000+0  41023-3 0  9998
2 61561  88.9816  75.2597 0005641 227.3263 132.7457 14.28064224 72233
QIANFAN-29              
1 61562U 24185L   25361.18122043  .00000208  00000+0  30287-3 0  9990
2 61562  88.9783  79.8216 0009991  20.4220 339.7329 13.51017005 69741
QIANFAN-30              
1 61563U 24185M   25361.16700943  .00000195  00000+0  28788-3 0  9998
2 61563  88.9804  79.3541 0007168   9.3531 350.7752 13.49991737 70012
QIANFAN-31              
1 61564U 24185N   25361.19809554  .00000210  00000+0  27458-3 0  9991
2 61564  88.9787  79.1299 0006315   4.3275 355.7934 13.57971763 70129
QIANFAN-32              
1 61565U 24185P   25361.20156760  .00000193  00000+0  28152-3 0  9990
2 61565  88.9846  79.4889 0009878  33.2471 326.9299 13.50739397 69995
